TDRS 3                  
1 19548U 88091B   26162.38845874 -.00000292  00000+0  00000+0 0  9999
2 19548  12.6066 341.0383 0038379 356.1165  13.5633  1.00275420125335
FLTSATCOM 8 (USA 46)    
1 20253U 89077A   26162.36295251 -.00000360  00000+0  00000+0 0  9991
2 20253  12.4236 351.2015 0004611  51.3686 113.3494  1.00280501260505
SKYNET 4C               
1 20776U 90079A   26162.20198486  .00000132  00000+0  00000+0 0  9996
2 20776  13.3423 349.8525 0002400  96.2300 279.5547  1.00274124130837
TDRS 5                  
1 21639U 91054B   26162.26502642  .00000089  00000+0  00000+0 0  9999
2 21639  14.0721 353.8212 0006288 274.7454 278.7573  1.00272024127657
TDRS 6                  
1 22314U 93003B   26162.40619875 -.00000290  00000+0  00000+0 0  9994
2 22314  14.1828 357.1041 0007592 178.2276 184.8418  1.00273497122355
UFO 2 (USA 95)          
1 22787U 93056A   26162.20111819  .00000132  00000+0  00000+0 0  9993
2 22787  11.8930   3.5906 0006189   6.7365 350.2453  1.00273868118483
USA 99 (MILSTAR-1 1)    
1 22988U 94009A   26162.27415051 -.00000029  00000+0  00000+0 0  9993
2 22988  17.6176  27.7667 0001069 208.9061 159.6381  0.98721264 32890
UFO 4 (USA 108)         
1 23467U 95003A   26162.31317103 -.00000014  00000+0  00000+0 0  9999
2 23467   9.7104  13.2535 0003073  59.7526 111.5640  1.00271727114899
TDRS 7                  
1 23613U 95035B   26162.49822539 -.00000231  00000+0  00000+0 0  9991
2 23613  13.3795 348.2316 0011103  76.7927 103.1616  1.00265956113193
USA 115 (MILSTAR-1 2)   
1 23712U 95060A   26162.53293729 -.00000176  00000+0  00000+0 0  9995
2 23712  14.0708   3.7894 0001629 140.4948 211.3483  1.00365230 32823
INMARSAT 3-F1           
1 23839U 96020A   26162.16225447 -.00000147  00000+0  00000+0 0  9991
2 23839  10.5893  46.6916 0003680  41.2926 141.1227  0.99979598110191
INMARSAT 3-F2           
1 24307U 96053A   26162.51127053 -.00000206  00000+0  00000+0 0  9997
2 24307   9.8450  53.9959 0006749  24.9086 159.8632  1.00004099108869
INMARSAT 3-F3           
1 24674U 96070A   26161.87299566  .00000136  00000+0  00000+0 0  9991
2 24674  10.3053  49.7153 0003471  16.8784 196.0389  0.99979576107842
AMC-3                   
1 24936U 97050A   26156.46923512 -.00000232  00000+0  00000+0 0  9993
2 24936   8.1165  64.2198 0010464 111.2215 173.9176  1.00107765 52317
USA 134                 
1 25019U 97065A   26162.32547796 -.00000056  00000+0  00000+0 0  9994
2 25019  12.7769  21.7647 0003367 337.3695 265.4904  1.00269801 32892
INMARSAT 3-F5           
1 25153U 98006B   26162.20183615 -.00000281  00000+0  00000+0 0  9992
2 25153   9.6794  53.3174 0004512  23.8714 201.0569  1.00270167103835
ABS-6                   
1 25924U 99053A   26162.51205053 -.00000103  00000+0  00000+0 0  9999
2 25924   0.0159 312.2437 0003305 131.2552 159.6962  1.00271222 97787
UFO 10 (USA 146)        
1 25967U 99063A   26161.97699617 -.00000178  00000+0  00000+0 0  9991
2 25967   9.8430  27.2488 0001970  29.1923 171.6795  1.00272465 97288
ASIASTAR                
1 26107U 00016A   26158.64794378 -.00000321  00000+0  00000+0 0  9998
2 26107   9.1019  58.2562 0004712  17.4232 158.6382  1.00273400 95823
USA 149 (DSP 20)        
1 26356U 00024A   26162.26248807  .00000100  00000+0  00000+0 0  9991
2 26356  13.1659  11.8929 0001699 306.4821 230.3191  1.00272427 32850
TDRS 8                  
1 26388U 00034A   26161.73231052 -.00000185  00000+0  00000+0 0  9996
2 26388  12.6739  31.3787 0004882  13.3887 202.6553  1.00268402 95110
NSS-11                  
1 26554U 00059A   26162.53864215  .00000041  00000+0  00000+0 0  9990
2 26554   2.1112  81.4542 0002918   4.8556 183.4930  1.00272792 41231
USA 153                 
1 26575U 00065A   26162.50719719 -.00000316  00000+0  00000+0 0  9991
2 26575  11.6149  35.4690 0003066  46.6126 134.8733  1.00270836 32872
AMC-6                   
1 26580U 00067A   26162.59638725  .00000105  00000+0  00000+0 0  9990
2 26580   0.1373  83.0382 0003496   8.0583 248.5004  1.00271537 93839
USA 157 (MILSTAR-2 2)   
1 26715U 01009A   26162.27211008  .00000117  00000+0  00000+0 0  9996
2 26715  11.5359  19.7991 0039310 177.3731  10.3241  1.00272246 32884
USA 159 (DSP 21)        
1 26880U 01033A   26162.53813731 -.00000160  00000+0  00000+0 0  9995
2 26880  12.7766  16.4803 0001400 134.1270 233.8090  0.99198114 32901
INTELSAT 902 (IS-902)   
1 26900U 01039A   26162.54195067 -.00000270  00000+0  00000+0 0  9992
2 26900   6.1038  71.8523 0004503   4.8242 328.2062  1.00272036 90637
USA 164 (MILSTAR-2 3)   
1 27168U 02001A   26162.27042382  .00000106  00000+0  00000+0 0  9997
2 27168  11.1722  21.9412 0099019   8.2914 345.7077  1.00275369 32899
INTELSAT 904 (IS-904)   
1 27380U 02007A   26162.43088535 -.00000213  00000+0  00000+0 0  9997
2 27380   6.9050  69.2520 0006582   2.4614 311.6923  1.00272051 51700
DIRECTV 5 (TEMPO 1)     
1 27426U 02023A   26162.39905993 -.00000043  00000+0  00000+0 0  9998
2 27426   4.8622  75.3806 0003256  17.0700 200.8526  1.00271434 88062
INTELSAT 905 (IS-905)   
1 27438U 02027A   26162.51202027  .00000107  00000+0  00000+0 0  9997
2 27438   6.7387  69.8665 0003855  17.4003 219.6999  1.00271458 51305
